COSMOS 2476 (744)       
1 37867U 11064A   25061.35067241  .00000037  00000+0  00000+0 0  9993
2 37867  65.0077  88.8321 0024862 240.7679 107.2131  2.13101486103707
COSMOS 2477 (745)       
1 37868U 11064B   25061.37197566  .00000037  00000+0  00000+0 0  9990
2 37868  65.0146  88.9064 0022055 242.2583 301.4824  2.13102917103700
COSMOS 2475 (743)       
1 37869U 11064C   25061.23486551  .00000038  00000+0  00000+0 0  9992
2 37869  65.0214  88.9283 0027479 254.7782 140.9925  2.13101607103718
COSMOS 2485 (747)       
1 39155U 13019A   25061.30676637  .00000038  00000+0  00000+0 0  9998
2 39155  65.1627  89.4711 0025147 236.8225 123.0018  2.13104378 92228
COSMOS 2492 (754)       
1 39620U 14012A   25061.26303649 -.00000049  00000+0  00000+0 0  9997
2 39620  65.5571 329.9323 0014004 325.3651  34.5936  2.13103075 85180
COSMOS 2500 (755)       
1 40001U 14032A   25060.03122119 -.00000043  00000+0  00000+0 0  9993
2 40001  65.4943 329.7590 0004970 211.4783 148.5415  2.13105881 83377
COSMOS 2501 (702K)      
1 40315U 14075A   25060.28722141  .00000047  00000+0  00000+0 0  9999
2 40315  63.6184 206.7481 0019662 204.8263 155.0419  2.13101241 79770
COSMOS 2514 (751)       
1 41330U 16008A   25061.20918123 -.00000048  00000+0  00000+0 0  9997
2 41330  65.2863 329.1631 0009005 216.3432 143.6462  2.13102486 70564
