[
    {
        "OBJECT_NAME": "COSMOS 2476 [GLONASS-M]",
        "OBJECT_ID": "2011-064A",
        "EPOCH": "2025-03-02T08:24:58.096224",
        "MEAN_MOTION": 2.13101486,
        "ECCENTRICITY": 0.0024862,
        "INCLINATION": 65.0077,
        "RA_OF_ASC_NODE": 88.8321,
        "ARG_OF_PERICENTER": 240.7679,
        "MEAN_ANOMALY": 107.2131,
        "EPHEMERIS_TYPE": 0,
        "CLASSIFICATION_TYPE": "U",
        "NORAD_CAT_ID": 37867,
        "ELEMENT_SET_NO": 999,
        "REV_AT_EPOCH": 10370,
        "BSTAR": 0,
        "MEAN_MOTION_DOT": 3.7e-07,
        "MEAN_MOTION_DDOT": 0
    },
    {
        "OBJECT_NAME": "COSMOS 2477 [GLONASS-M]",
        "OBJECT_ID": "2011-064B",
        "EPOCH": "2025-03-02T08:55:38.697024",
        "MEAN_MOTION": 2.13102917,
        "ECCENTRICITY": 0.0022055,
        "INCLINATION": 65.0146,
        "RA_OF_ASC_NODE": 88.9064,
        "ARG_OF_PERICENTER": 242.2583,
        "MEAN_ANOMALY": 301.4824,
        "EPHEMERIS_TYPE": 0,
        "CLASSIFICATION_TYPE": "U",
        "NORAD_CAT_ID": 37868,
        "ELEMENT_SET_NO": 999,
        "REV_AT_EPOCH": 10370,
        "BSTAR": 0,
        "MEAN_MOTION_DOT": 3.7e-07,
        "MEAN_MOTION_DDOT": 0
    },
    {
        "OBJECT_NAME": "COSMOS 2475 [GLONASS-M]",
        "OBJECT_ID": "2011-064C",
        "EPOCH": "2025-03-02T05:38:12.380064",
        "MEAN_MOTION": 2.13101607,
        "ECCENTRICITY": 0.0027479,
        "INCLINATION": 65.0214,
        "RA_OF_ASC_NODE": 88.9283,
        "ARG_OF_PERICENTER": 254.7782,
        "MEAN_ANOMALY": 140.9925,
        "EPHEMERIS_TYPE": 0,
        "CLASSIFICATION_TYPE": "U",
        "NORAD_CAT_ID": 37869,
        "ELEMENT_SET_NO": 999,
        "REV_AT_EPOCH": 10371,
        "BSTAR": 0,
        "MEAN_MOTION_DOT": 3.8e-07,
        "MEAN_MOTION_DDOT": 0
    },
    {
        "OBJECT_NAME": "COSMOS 2485 [GLONASS-M]",
        "OBJECT_ID": "2013-019A",
        "EPOCH": "2025-03-02T07:21:44.614368",
        "MEAN_MOTION": 2.13104378,
        "ECCENTRICITY": 0.0025147,
        "INCLINATION": 65.1627,
        "RA_OF_ASC_NODE": 89.4711,
        "ARG_OF_PERICENTER": 236.8225,
        "MEAN_ANOMALY": 123.0018,
        "EPHEMERIS_TYPE": 0,
        "CLASSIFICATION_TYPE": "U",
        "NORAD_CAT_ID": 39155,
        "ELEMENT_SET_NO": 999,
        "REV_AT_EPOCH": 9222,
        "BSTAR": 0,
        "MEAN_MOTION_DOT": 3.8e-07,
        "MEAN_MOTION_DDOT": 0
    },
    {
        "OBJECT_NAME": "COSMOS 2492 [GLONASS-M]",
        "OBJECT_ID": "2014-012A",
        "EPOCH": "2025-03-02T06:18:46.352736",
        "MEAN_MOTION": 2.13103075,
        "ECCENTRICITY": 0.0014004,
        "INCLINATION": 65.5571,
        "RA_OF_ASC_NODE": 329.9323,
        "ARG_OF_PERICENTER": 325.3651,
        "MEAN_ANOMALY": 34.5936,
        "EPHEMERIS_TYPE": 0,
        "CLASSIFICATION_TYPE": "U",
        "NORAD_CAT_ID": 39620,
        "ELEMENT_SET_NO": 999,
        "REV_AT_EPOCH": 8518,
        "BSTAR": 0,
        "MEAN_MOTION_DOT": -4.9e-07,
        "MEAN_MOTION_DDOT": 0
    },
    {
        "OBJECT_NAME": "COSMOS 2500 [GLONASS-M]",
        "OBJECT_ID": "2014-032A",
        "EPOCH": "2025-03-01T00:44:57.510816",
        "MEAN_MOTION": 2.13105881,
        "ECCENTRICITY": 0.000497,
        "INCLINATION": 65.4943,
        "RA_OF_ASC_NODE": 329.759,
        "ARG_OF_PERICENTER": 211.4783,
        "MEAN_ANOMALY": 148.5415,
        "EPHEMERIS_TYPE": 0,
        "CLASSIFICATION_TYPE": "U",
        "NORAD_CAT_ID": 40001,
        "ELEMENT_SET_NO": 999,
        "REV_AT_EPOCH": 8337,
        "BSTAR": 0,
        "MEAN_MOTION_DOT": -4.3e-07,
        "MEAN_MOTION_DDOT": 0
    },
    {
        "OBJECT_NAME": "COSMOS 2501 [GLONASS-K]",
        "OBJECT_ID": "2014-075A",
        "EPOCH": "2025-03-01T06:53:35.929824",
        "MEAN_MOTION": 2.13101241,
        "ECCENTRICITY": 0.0019662,
        "INCLINATION": 63.6184,
        "RA_OF_ASC_NODE": 206.7481,
        "ARG_OF_PERICENTER": 204.8263,
        "MEAN_ANOMALY": 155.0419,
        "EPHEMERIS_TYPE": 0,
        "CLASSIFICATION_TYPE": "U",
        "NORAD_CAT_ID": 40315,
        "ELEMENT_SET_NO": 999,
        "REV_AT_EPOCH": 7977,
        "BSTAR": 0,
        "MEAN_MOTION_DOT": 4.7e-07,
        "MEAN_MOTION_DDOT": 0
    },
    {
        "OBJECT_NAME": "COSMOS 2514 [GLONASS-M]",
        "OBJECT_ID": "2016-008A",
        "EPOCH": "2025-03-02T05:01:13.258272",
        "MEAN_MOTION": 2.13102486,
        "ECCENTRICITY": 0.0009005,
        "INCLINATION": 65.2863,
        "RA_OF_ASC_NODE": 329.1631,
        "ARG_OF_PERICENTER": 216.3432,
        "MEAN_ANOMALY": 143.6462,
        "EPHEMERIS_TYPE": 0,
        "CLASSIFICATION_TYPE": "U",
        "NORAD_CAT_ID": 41330,
        "ELEMENT_SET_NO": 999,
        "REV_AT_EPOCH": 7056,
        "BSTAR": 0,
        "MEAN_MOTION_DOT": -4.8e-07,
        "MEAN_MOTION_DDOT": 0
    }
]